STARLINK-35694          
1 66389U 25257K   25322.66672454 -.01383757  00000+0 -60083-2 0  9991
2 66389  53.1535  20.5232 0001100  52.5978  33.2523 15.86914912  2622
STARLINK-35665          
1 66390U 25257L   25322.66672454 -.01703684  00000+0 -73201-2 0  9994
2 66390  53.1532  20.4336 0001248  60.6918  68.2836 15.87261892  2721
STARLINK-35656          
1 66391U 25257M   25322.66672454 -.01628475  74711-3 -47061-2 0  9998
2 66391  53.1533  20.2708 0000924  64.5750 143.3194 15.92440610  2726
STARLINK-35671          
1 66392U 25257N   25322.66672454 -.01406526  00000+0 -61071-2 0  9993
2 66392  53.1535  20.5128 0001257  55.1582  35.7806 15.86961927  2622
STARLINK-35652          
1 66393U 25257P   25322.66672454 -.01391961  00000+0 -60425-2 0  9992
2 66393  53.1535  20.5182 0001131  55.6162  32.7710 15.86936700  2625
STARLINK-35672          
1 66394U 25257Q   25322.66672454 -.01410524  00000+0 -61215-2 0  9998
2 66394  53.1534  20.5076 0001064  51.2973  42.1091 15.86982535  2628
STARLINK-35681          
1 66395U 25257R   25322.66672454 -.01427665  00000+0 -62000-2 0  9996
2 66395  53.1536  20.5021 0001087  53.5918  42.4734 15.87005743  2467
STARLINK-35669          
1 66396U 25257S   25322.66672454 -.01443811  00000+0 -62693-2 0  9996
2 66396  53.1534  20.4977 0001010  54.8700  43.1923 15.87044384  2624
STARLINK-35510          
1 66397U 25257T   25322.66672454 -.01568301  00000+0 -67333-2 0  9995
2 66397  53.1532  20.4881 0001269  57.7876  44.8707 15.87032178  2625
STARLINK-35642          
1 66398U 25257U   25322.66672454 -.01588758  00000+0 -68214-2 0  9993
2 66398  53.1534  20.4838 0001213  54.0385  50.5704 15.87068420  2624
STARLINK-35657          
1 66399U 25257V   25322.66672454 -.01607849  00000+0 -69061-2 0  9998
2 66399  53.1537  20.4795 0001216  52.9536  53.8194 15.87094754  2626
STARLINK-35667          
1 66400U 25257W   25322.66672454 -.01641060  00000+0 -70560-2 0  9990
2 66400  53.1535  20.4699 0001212  58.4198  52.9519 15.87133904  2623
