CCSDS_OMM_VERS = 2.0
CREATION_DATE  = 
ORIGINATOR     = 

OBJECT_NAME    = STARLINK-35694
OBJECT_ID      = 2025-257K
CENTER_NAME    = EARTH
REF_FRAME      = TEME
TIME_SYSTEM    = UTC
MEAN_ELEMENT_THEORY = SGP/SGP4

EPOCH          = 2025-11-18T16:00:05.000256
MEAN_MOTION    = 15.86914912
ECCENTRICITY   = .00011
INCLINATION    = 53.1535
RA_OF_ASC_NODE = 20.5232
ARG_OF_PERICENTER = 52.5978
MEAN_ANOMALY   = 33.2523

EPHEMERIS_TYPE = 0
CLASSIFICATION_TYPE = U
NORAD_CAT_ID   = 66389
ELEMENT_SET_NO = 999
REV_AT_EPOCH   = 262
BSTAR          = -.60083E-2
MEAN_MOTION_DOT = -.1383757E-1
MEAN_MOTION_DDOT = 0

CCSDS_OMM_VERS = 2.0
CREATION_DATE  = 
ORIGINATOR     = 

OBJECT_NAME    = STARLINK-35665
OBJECT_ID      = 2025-257L
CENTER_NAME    = EARTH
REF_FRAME      = TEME
TIME_SYSTEM    = UTC
MEAN_ELEMENT_THEORY = SGP/SGP4

EPOCH          = 2025-11-18T16:00:05.000256
MEAN_MOTION    = 15.87261892
ECCENTRICITY   = .0001248
INCLINATION    = 53.1532
RA_OF_ASC_NODE = 20.4336
ARG_OF_PERICENTER = 60.6918
MEAN_ANOMALY   = 68.2836

EPHEMERIS_TYPE = 0
CLASSIFICATION_TYPE = U
NORAD_CAT_ID   = 66390
ELEMENT_SET_NO = 999
REV_AT_EPOCH   = 272
BSTAR          = -.73201E-2
MEAN_MOTION_DOT = -.1703684E-1
MEAN_MOTION_DDOT = 0

CCSDS_OMM_VERS = 2.0
CREATION_DATE  = 
ORIGINATOR     = 

OBJECT_NAME    = STARLINK-35656
OBJECT_ID      = 2025-257M
CENTER_NAME    = EARTH
REF_FRAME      = TEME
TIME_SYSTEM    = UTC
MEAN_ELEMENT_THEORY = SGP/SGP4

EPOCH          = 2025-11-18T16:00:05.000256
MEAN_MOTION    = 15.92440610
ECCENTRICITY   = .0000924
INCLINATION    = 53.1533
RA_OF_ASC_NODE = 20.2708
ARG_OF_PERICENTER = 64.5750
MEAN_ANOMALY   = 143.3194

EPHEMERIS_TYPE = 0
CLASSIFICATION_TYPE = U
NORAD_CAT_ID   = 66391
ELEMENT_SET_NO = 999
REV_AT_EPOCH   = 272
BSTAR          = -.47061E-2
MEAN_MOTION_DOT = -.1628475E-1
MEAN_MOTION_DDOT = .74711E-3

CCSDS_OMM_VERS = 2.0
CREATION_DATE  = 
ORIGINATOR     = 

OBJECT_NAME    = STARLINK-35671
OBJECT_ID      = 2025-257N
CENTER_NAME    = EARTH
REF_FRAME      = TEME
TIME_SYSTEM    = UTC
MEAN_ELEMENT_THEORY = SGP/SGP4

EPOCH          = 2025-11-18T16:00:05.000256
MEAN_MOTION    = 15.86961927
ECCENTRICITY   = .0001257
INCLINATION    = 53.1535
RA_OF_ASC_NODE = 20.5128
ARG_OF_PERICENTER = 55.1582
MEAN_ANOMALY   = 35.7806

EPHEMERIS_TYPE = 0
CLASSIFICATION_TYPE = U
NORAD_CAT_ID   = 66392
ELEMENT_SET_NO = 999
REV_AT_EPOCH   = 262
BSTAR          = -.61071E-2
MEAN_MOTION_DOT = -.1406526E-1
MEAN_MOTION_DDOT = 0

CCSDS_OMM_VERS = 2.0
CREATION_DATE  = 
ORIGINATOR     = 

OBJECT_NAME    = STARLINK-35652
OBJECT_ID      = 2025-257P
CENTER_NAME    = EARTH
REF_FRAME      = TEME
TIME_SYSTEM    = UTC
MEAN_ELEMENT_THEORY = SGP/SGP4

EPOCH          = 2025-11-18T16:00:05.000256
MEAN_MOTION    = 15.86936700
ECCENTRICITY   = .0001131
INCLINATION    = 53.1535
RA_OF_ASC_NODE = 20.5182
ARG_OF_PERICENTER = 55.6162
MEAN_ANOMALY   = 32.7710

EPHEMERIS_TYPE = 0
CLASSIFICATION_TYPE = U
NORAD_CAT_ID   = 66393
ELEMENT_SET_NO = 999
REV_AT_EPOCH   = 262
BSTAR          = -.60425E-2
MEAN_MOTION_DOT = -.1391961E-1
MEAN_MOTION_DDOT = 0

CCSDS_OMM_VERS = 2.0
CREATION_DATE  = 
ORIGINATOR     = 

OBJECT_NAME    = STARLINK-35672
OBJECT_ID      = 2025-257Q
CENTER_NAME    = EARTH
REF_FRAME      = TEME
TIME_SYSTEM    = UTC
MEAN_ELEMENT_THEORY = SGP/SGP4

EPOCH          = 2025-11-18T16:00:05.000256
MEAN_MOTION    = 15.86982535
ECCENTRICITY   = .0001064
INCLINATION    = 53.1534
RA_OF_ASC_NODE = 20.5076
ARG_OF_PERICENTER = 51.2973
MEAN_ANOMALY   = 42.1091

EPHEMERIS_TYPE = 0
CLASSIFICATION_TYPE = U
NORAD_CAT_ID   = 66394
ELEMENT_SET_NO = 999
REV_AT_EPOCH   = 262
BSTAR          = -.61215E-2
MEAN_MOTION_DOT = -.1410524E-1
MEAN_MOTION_DDOT = 0

CCSDS_OMM_VERS = 2.0
CREATION_DATE  = 
ORIGINATOR     = 

OBJECT_NAME    = STARLINK-35681
OBJECT_ID      = 2025-257R
CENTER_NAME    = EARTH
REF_FRAME      = TEME
TIME_SYSTEM    = UTC
MEAN_ELEMENT_THEORY = SGP/SGP4

EPOCH          = 2025-11-18T16:00:05.000256
MEAN_MOTION    = 15.87005743
ECCENTRICITY   = .0001087
INCLINATION    = 53.1536
RA_OF_ASC_NODE = 20.5021
ARG_OF_PERICENTER = 53.5918
MEAN_ANOMALY   = 42.4734

EPHEMERIS_TYPE = 0
CLASSIFICATION_TYPE = U
NORAD_CAT_ID   = 66395
ELEMENT_SET_NO = 999
REV_AT_EPOCH   = 246
BSTAR          = -.62E-2
MEAN_MOTION_DOT = -.1427665E-1
MEAN_MOTION_DDOT = 0

CCSDS_OMM_VERS = 2.0
CREATION_DATE  = 
ORIGINATOR     = 

OBJECT_NAME    = STARLINK-35669
OBJECT_ID      = 2025-257S
CENTER_NAME    = EARTH
REF_FRAME      = TEME
TIME_SYSTEM    = UTC
MEAN_ELEMENT_THEORY = SGP/SGP4

EPOCH          = 2025-11-18T16:00:05.000256
MEAN_MOTION    = 15.87044384
ECCENTRICITY   = .000101
INCLINATION    = 53.1534
RA_OF_ASC_NODE = 20.4977
ARG_OF_PERICENTER = 54.8700
MEAN_ANOMALY   = 43.1923

EPHEMERIS_TYPE = 0
CLASSIFICATION_TYPE = U
NORAD_CAT_ID   = 66396
ELEMENT_SET_NO = 999
REV_AT_EPOCH   = 262
BSTAR          = -.62693E-2
MEAN_MOTION_DOT = -.1443811E-1
MEAN_MOTION_DDOT = 0

CCSDS_OMM_VERS = 2.0
CREATION_DATE  = 
ORIGINATOR     = 

OBJECT_NAME    = STARLINK-35510
OBJECT_ID      = 2025-257T
CENTER_NAME    = EARTH
REF_FRAME      = TEME
TIME_SYSTEM    = UTC
MEAN_ELEMENT_THEORY = SGP/SGP4

EPOCH          = 2025-11-18T16:00:05.000256
MEAN_MOTION    = 15.87032178
ECCENTRICITY   = .0001269
INCLINATION    = 53.1532
RA_OF_ASC_NODE = 20.4881
ARG_OF_PERICENTER = 57.7876
MEAN_ANOMALY   = 44.8707

EPHEMERIS_TYPE = 0
CLASSIFICATION_TYPE = U
NORAD_CAT_ID   = 66397
ELEMENT_SET_NO = 999
REV_AT_EPOCH   = 262
BSTAR          = -.67333E-2
MEAN_MOTION_DOT = -.1568301E-1
MEAN_MOTION_DDOT = 0

CCSDS_OMM_VERS = 2.0
CREATION_DATE  = 
ORIGINATOR     = 

OBJECT_NAME    = STARLINK-35642
OBJECT_ID      = 2025-257U
CENTER_NAME    = EARTH
REF_FRAME      = TEME
TIME_SYSTEM    = UTC
MEAN_ELEMENT_THEORY = SGP/SGP4

EPOCH          = 2025-11-18T16:00:05.000256
MEAN_MOTION    = 15.87068420
ECCENTRICITY   = .0001213
INCLINATION    = 53.1534
RA_OF_ASC_NODE = 20.4838
ARG_OF_PERICENTER = 54.0385
MEAN_ANOMALY   = 50.5704

EPHEMERIS_TYPE = 0
CLASSIFICATION_TYPE = U
NORAD_CAT_ID   = 66398
ELEMENT_SET_NO = 999
REV_AT_EPOCH   = 262
BSTAR          = -.68214E-2
MEAN_MOTION_DOT = -.1588758E-1
MEAN_MOTION_DDOT = 0

CCSDS_OMM_VERS = 2.0
CREATION_DATE  = 
ORIGINATOR     = 

OBJECT_NAME    = STARLINK-35657
OBJECT_ID      = 2025-257V
CENTER_NAME    = EARTH
REF_FRAME      = TEME
TIME_SYSTEM    = UTC
MEAN_ELEMENT_THEORY = SGP/SGP4

EPOCH          = 2025-11-18T16:00:05.000256
MEAN_MOTION    = 15.87094754
ECCENTRICITY   = .0001216
INCLINATION    = 53.1537
RA_OF_ASC_NODE = 20.4795
ARG_OF_PERICENTER = 52.9536
MEAN_ANOMALY   = 53.8194

EPHEMERIS_TYPE = 0
CLASSIFICATION_TYPE = U
NORAD_CAT_ID   = 66399
ELEMENT_SET_NO = 999
REV_AT_EPOCH   = 262
BSTAR          = -.69061E-2
MEAN_MOTION_DOT = -.1607849E-1
MEAN_MOTION_DDOT = 0

CCSDS_OMM_VERS = 2.0
CREATION_DATE  = 
ORIGINATOR     = 

OBJECT_NAME    = STARLINK-35667
OBJECT_ID      = 2025-257W
CENTER_NAME    = EARTH
REF_FRAME      = TEME
TIME_SYSTEM    = UTC
MEAN_ELEMENT_THEORY = SGP/SGP4

EPOCH          = 2025-11-18T16:00:05.000256
MEAN_MOTION    = 15.87133904
ECCENTRICITY   = .0001212
INCLINATION    = 53.1535
RA_OF_ASC_NODE = 20.4699
ARG_OF_PERICENTER = 58.4198
MEAN_ANOMALY   = 52.9519

EPHEMERIS_TYPE = 0
CLASSIFICATION_TYPE = U
NORAD_CAT_ID   = 66400
ELEMENT_SET_NO = 999
REV_AT_EPOCH   = 262
BSTAR          = -.7056E-2
MEAN_MOTION_DOT = -.164106E-1
MEAN_MOTION_DDOT = 0

